start=new Date('2022-10-11T00:00:00.000Z').valueOf();
sats=[{"CENTER_NAME":"EARTH","REV_AT_EPOCH":"12105","RA_OF_ASC_NODE":"321.0452","ECCENTRICITY":"0.00016100","EPOCH":"2022-10-10T11:36:00.457632","MEAN_ELEMENT_THEORY":"SGP4","MEAN_MOTION_DDOT":"0.0000000000000","INCLINATION":"53.0532","EPHEMERIS_TYPE":"0","MEAN_MOTION":"15.06399487","ELEMENT_SET_NO":"999","RCS_SIZE":"LARGE","COUNTRY_CODE":"US","PERIOD":"95.592","TLE_LINE1":"1 46038U 20055M   22283.48333863  .00002678  00000-0  19860-3 0  9998","PERIAPSIS":"546.100","LAUNCH_DATE":"2020-08-07","OBJECT_TYPE":"PAYLOAD","MEAN_MOTION_DOT":"0.00002678","ARG_OF_PERICENTER":"55.5150","BSTAR":"0.00019860000000","CLASSIFICATION_TYPE":"U","APOAPSIS":"548.330","OBJECT_ID":"2020-055M","GP_ID":"214673922","REF_FRAME":"TEME","OBJECT_NAME":"STARLINK-1567","TLE_LINE2":"2 46038  53.0532 321.0452 0001610  55.5150 304.5991 15.06399487121059","NORAD_CAT_ID":"46038","SITE":"AFETR","TIME_SYSTEM":"UTC","SEMIMAJOR_AXIS":"6925.350","FILE":"3600948","MEAN_ANOMALY":"304.5991","DECAY_DATE":null},{"MEAN_ELEMENT_THEORY":"SGP4","CENTER_NAME":"EARTH","REV_AT_EPOCH":"12059","RA_OF_ASC_NODE":"319.5217","ECCENTRICITY":"0.00018670","EPOCH":"2022-10-10T19:44:19.945248","TLE_LINE1":"1 46039U 20055N   22283.82245307 -.00001961  00000-0 -11283-3 0  9999","MEAN_MOTION_DDOT":"0.0000000000000","INCLINATION":"53.0536","MEAN_MOTION":"15.06385605","EPHEMERIS_TYPE":"0","ELEMENT_SET_NO":"999","RCS_SIZE":"LARGE","COUNTRY_CODE":"US","PERIOD":"95.593","BSTAR":"-0.00011283000000","CLASSIFICATION_TYPE":"U","APOAPSIS":"548.551","OBJECT_ID":"2020-055N","GP_ID":"214683488","REF_FRAME":"TEME","PERIAPSIS":"545.965","LAUNCH_DATE":"2020-08-07","OBJECT_TYPE":"PAYLOAD","MEAN_MOTION_DOT":"-0.00001961","ARG_OF_PERICENTER":"49.5798","SEMIMAJOR_AXIS":"6925.393","TIME_SYSTEM":"UTC","FILE":"3601199","DECAY_DATE":null,"MEAN_ANOMALY":"310.5354","TLE_LINE2":"2 46039  53.0536 319.5217 0001867  49.5798 310.5354 15.06385605120595","OBJECT_NAME":"STARLINK-1569","SITE":"AFETR","NORAD_CAT_ID":"46039"},{"REF_FRAME":"TEME","OBJECT_ID":"2020-055P","GP_ID":"214672423","APOAPSIS":"548.543","CLASSIFICATION_TYPE":"U","BSTAR":"0.00011305000000","ARG_OF_PERICENTER":"52.2151","MEAN_MOTION_DOT":"0.00001403","OBJECT_TYPE":"PAYLOAD","LAUNCH_DATE":"2020-08-07","PERIAPSIS":"545.885","DECAY_DATE":null,"MEAN_ANOMALY":"307.9011","FILE":"3600948","SEMIMAJOR_AXIS":"6925.349","TIME_SYSTEM":"UTC","SITE":"AFETR","NORAD_CAT_ID":"46040","TLE_LINE2":"2 46040  53.0559 321.4770 0001919  52.2151 307.9011 15.06399813121003","OBJECT_NAME":"STARLINK-1576","MEAN_ELEMENT_THEORY":"SGP4","EPOCH":"2022-10-10T09:18:00.228960","ECCENTRICITY":"0.00019190","RA_OF_ASC_NODE":"321.4770","REV_AT_EPOCH":"12100","CENTER_NAME":"EARTH","TLE_LINE1":"1 46040U 20055P   22283.38750265  .00001403  00000-0  11305-3 0  9990","PERIOD":"95.592","COUNTRY_CODE":"US","RCS_SIZE":"LARGE","ELEMENT_SET_NO":"999","EPHEMERIS_TYPE":"0","MEAN_MOTION":"15.06399813","MEAN_MOTION_DDOT":"0.0000000000000","INCLINATION":"53.0559"},{"TLE_LINE1":"1 46041U 20055Q   22283.79663764  .00007308  00000-0  50936-3 0  9996","MEAN_MOTION":"15.06371467","EPHEMERIS_TYPE":"0","MEAN_MOTION_DDOT":"0.0000000000000","INCLINATION":"53.0541","RCS_SIZE":"LARGE","ELEMENT_SET_NO":"999","COUNTRY_CODE":"US","PERIOD":"95.594","MEAN_ELEMENT_THEORY":"SGP4","CENTER_NAME":"EARTH","RA_OF_ASC_NODE":"319.7313","REV_AT_EPOCH":"12107","ECCENTRICITY":"0.00022770","EPOCH":"2022-10-10T19:07:09.492096","SEMIMAJOR_AXIS":"6925.436","TIME_SYSTEM":"UTC","FILE":"3601747","DECAY_DATE":null,"MEAN_ANOMALY":"307.9327","TLE_LINE2":"2 46041  53.0541 319.7313 0002277  52.1868 307.9327 15.06371467121072","OBJECT_NAME":"STARLINK-1580","SITE":"AFETR","NORAD_CAT_ID":"46041","CLASSIFICATION_TYPE":"U","BSTAR":"0.00050936000000","APOAPSIS":"548.878","REF_FRAME":"TEME","OBJECT_ID":"2020-055Q","GP_ID":"214715673","OBJECT_TYPE":"PAYLOAD","LAUNCH_DATE":"2020-08-07","PERIAPSIS":"545.724","MEAN_MOTION_DOT":"0.00007308","ARG_OF_PERICENTER":"52.1868"},{"APOAPSIS":"548.440","OBJECT_ID":"2020-055R","GP_ID":"214714440","REF_FRAME":"TEME","BSTAR":"0.00015491000000","CLASSIFICATION_TYPE":"U","ARG_OF_PERICENTER":"54.9813","LAUNCH_DATE":"2020-08-07","PERIAPSIS":"545.980","OBJECT_TYPE":"PAYLOAD","MEAN_MOTION_DOT":"0.00002027","FILE":"3601747","DECAY_DATE":null,"MEAN_ANOMALY":"305.1343","SEMIMAJOR_AXIS":"6925.345","TIME_SYSTEM":"UTC","SITE":"AFETR","NORAD_CAT_ID":"46042","TLE_LINE2":"2 46042  53.0554 319.4670 0001776  54.9813 305.1343 15.06401255121070","OBJECT_NAME":"STARLINK-1581","MEAN_ELEMENT_THEORY":"SGP4","ECCENTRICITY":"0.00017760","EPOCH":"2022-10-10T20:05:33.214272","CENTER_NAME":"EARTH","REV_AT_EPOCH":"12107","RA_OF_ASC_NODE":"319.4670","TLE_LINE1":"1 46042U 20055R   22283.83718998  .00002027  00000-0  15491-3 0  9992","COUNTRY_CODE":"US","PERIOD":"95.592","INCLINATION":"53.0554","MEAN_MOTION_DDOT":"0.0000000000000","EPHEMERIS_TYPE":"0","MEAN_MOTION":"15.06401255","ELEMENT_SET_NO":"999","RCS_SIZE":"LARGE"},{"EPOCH":"2022-10-10T19:54:56.103264","ECCENTRICITY":"0.00021420","REV_AT_EPOCH":"12059","RA_OF_ASC_NODE":"319.5022","CENTER_NAME":"EARTH","MEAN_ELEMENT_THEORY":"SGP4","PERIOD":"95.592","COUNTRY_CODE":"US","ELEMENT_SET_NO":"999","RCS_SIZE":"LARGE","MEAN_MOTION_DDOT":"0.0000000000000","INCLINATION":"53.0529","EPHEMERIS_TYPE":"0","MEAN_MOTION":"15.06406770","TLE_LINE1":"1 46043U 20055S   22283.82981601  .00006508  00000-0  45534-3 0  9994","ARG_OF_PERICENTER":"47.7179","MEAN_MOTION_DOT":"0.00006508","LAUNCH_DATE":"2020-08-07","PERIAPSIS":"545.709","OBJECT_TYPE":"PAYLOAD","GP_ID":"214683469","OBJECT_ID":"2020-055S","REF_FRAME":"TEME","APOAPSIS":"548.676","BSTAR":"0.00045534000000","CLASSIFICATION_TYPE":"U","SITE":"AFETR","NORAD_CAT_ID":"46043","TLE_LINE2":"2 46043  53.0529 319.5022 0002142  47.7179 312.3991 15.06406770120590","OBJECT_NAME":"STARLINK-1582","MEAN_ANOMALY":"312.3991","DECAY_DATE":null,"FILE":"3601198","TIME_SYSTEM":"UTC","SEMIMAJOR_AXIS":"6925.328"},{"ECCENTRICITY":"0.00014650","EPOCH":"2022-10-10T09:06:01.910592","CENTER_NAME":"EARTH","RA_OF_ASC_NODE":"321.5215","REV_AT_EPOCH":"12104","MEAN_ELEMENT_THEORY":"SGP4","COUNTRY_CODE":"US","PERIOD":"95.592","MEAN_MOTION":"15.06406882","EPHEMERIS_TYPE":"0","MEAN_MOTION_DDOT":"0.0000000000000","INCLINATION":"53.0554","RCS_SIZE":"LARGE","ELEMENT_SET_NO":"999","TLE_LINE1":"1 46044U 20055T   22283.37918878  .00005124  00000-0  36258-3 0  9997","ARG_OF_PERICENTER":"62.4832","OBJECT_TYPE":"PAYLOAD","PERIAPSIS":"546.178","LAUNCH_DATE":"2020-08-07","MEAN_MOTION_DOT":"0.00005124","APOAPSIS":"548.207","REF_FRAME":"TEME","GP_ID":"214672924","OBJECT_ID":"2020-055T","CLASSIFICATION_TYPE":"U","BSTAR":"0.00036258000000","SITE":"AFETR","NORAD_CAT_ID":"46044","TLE_LINE2":"2 46044  53.0554 321.5215 0001465  62.4832 297.6306 15.06406882121043","OBJECT_NAME":"STARLINK-1584","FILE":"3600948","DECAY_DATE":null,"MEAN_ANOMALY":"297.6306","SEMIMAJOR_AXIS":"6925.327","TIME_SYSTEM":"UTC"},{"MEAN_ELEMENT_THEORY":"SGP4","ECCENTRICITY":"0.00017580","EPOCH":"2022-10-10T09:23:19.704192","CENTER_NAME":"EARTH","RA_OF_ASC_NODE":"321.4749","REV_AT_EPOCH":"12102","TLE_LINE1":"1 46045U 20055U   22283.39120028  .00004480  00000-0  31950-3 0  9990","COUNTRY_CODE":"US","PERIOD":"95.592","MEAN_MOTION":"15.06398461","EPHEMERIS_TYPE":"0","MEAN_MOTION_DDOT":"0.0000000000000","INCLINATION":"53.0551","RCS_SIZE":"LARGE","ELEMENT_SET_NO":"999","APOAPSIS":"548.436","REF_FRAME":"TEME","OBJECT_ID":"2020-055U","GP_ID":"214673174","CLASSIFICATION_TYPE":"U","BSTAR":"0.00031950000000","ARG_OF_PERICENTER":"46.1772","OBJECT_TYPE":"PAYLOAD","LAUNCH_DATE":"2020-08-07","PERIAPSIS":"546.001","MEAN_MOTION_DOT":"0.00004480","FILE":"3600948","MEAN_ANOMALY":"313.9362","DECAY_DATE":null,"TIME_SYSTEM":"UTC","SEMIMAJOR_AXIS":"6925.353","SITE":"AFETR","NORAD_CAT_ID":"46045","TLE_LINE2":"2 46045  53.0551 321.4749 0001758  46.1772 313.9362 15.06398461121024","OBJECT_NAME":"STARLINK-1591"},{"REV_AT_EPOCH":"12117","RA_OF_ASC_NODE":"311.6682","CENTER_NAME":"EARTH","EPOCH":"2022-10-10T08:15:38.458368","ECCENTRICITY":"0.00016080","MEAN_ELEMENT_THEORY":"SGP4","ELEMENT_SET_NO":"999","RCS_SIZE":"LARGE","INCLINATION":"53.0548","MEAN_MOTION_DDOT":"0.0000000000000","MEAN_MOTION":"15.06396376","EPHEMERIS_TYPE":"0","PERIOD":"95.592","COUNTRY_CODE":"US","TLE_LINE1":"1 46047U 20055W   22283.34419512  .00001078  00000-0  91279-4 0  9997","MEAN_MOTION_DOT":"0.00001078","LAUNCH_DATE":"2020-08-07","PERIAPSIS":"546.111","OBJECT_TYPE":"PAYLOAD","ARG_OF_PERICENTER":"60.4145","BSTAR":"0.00009127900000","CLASSIFICATION_TYPE":"U","GP_ID":"214673923","OBJECT_ID":"2020-055W","REF_FRAME":"TEME","APOAPSIS":"548.338","OBJECT_NAME":"STARLINK-1524","TLE_LINE2":"2 46047  53.0548 311.6682 0001608  60.4145 299.7004 15.06396376121179","SITE":"AFETR","NORAD_CAT_ID":"46047","TIME_SYSTEM":"UTC","SEMIMAJOR_AXIS":"6925.360","DECAY_DATE":null,"MEAN_ANOMALY":"299.7004","FILE":"3600948"},{"TLE_LINE2":"2 46048  53.0540 311.1114 0001798  57.7333 302.3830 15.06395578121176","OBJECT_NAME":"STARLINK-1527","SITE":"AFETR","NORAD_CAT_ID":"46048","SEMIMAJOR_AXIS":"6925.362","TIME_SYSTEM":"UTC","DECAY_DATE":null,"MEAN_ANOMALY":"302.3830","FILE":"3600948","MEAN_MOTION_DOT":"0.00001103","LAUNCH_DATE":"2020-08-07","PERIAPSIS":"545.982","OBJECT_TYPE":"PAYLOAD","ARG_OF_PERICENTER":"57.7333","BSTAR":"0.00009292400000","CLASSIFICATION_TYPE":"U","GP_ID":"214673674","OBJECT_ID":"2020-055X","REF_FRAME":"TEME","APOAPSIS":"548.472","ELEMENT_SET_NO":"999","RCS_SIZE":"LARGE","INCLINATION":"53.0540","MEAN_MOTION_DDOT":"0.0000000000000","EPHEMERIS_TYPE":"0","MEAN_MOTION":"15.06395578","PERIOD":"95.592","COUNTRY_CODE":"US","TLE_LINE1":"1 46048U 20055X   22283.47320426  .00001103  00000-0  92924-4 0  9994","REV_AT_EPOCH":"12117","RA_OF_ASC_NODE":"311.1114","CENTER_NAME":"EARTH","EPOCH":"2022-10-10T11:21:24.848064","ECCENTRICITY":"0.00017980","MEAN_ELEMENT_THEORY":"SGP4"}];
